[{"OBJECT_NAME":"QIANFAN-32","OBJECT_ID":"2024-185P","EPOCH":"2026-03-09T22:40:40.766592","MEAN_MOTION":13.50765263,"ECCENTRICITY":0.00101134,"INCLINATION":88.9785,"RA_OF_ASC_NODE":72.0002,"ARG_OF_PERICENTER":160.716,"MEAN_ANOMALY":199.4376,"EPHEMERIS_TYPE":0,"CLASSIFICATION_TYPE":"U","NORAD_CAT_ID":61565,"ELEMENT_SET_NO":999,"REV_AT_EPOCH":7981,"BSTAR":0.00023987945,"MEAN_MOTION_DOT":1.66e-6,"MEAN_MOTION_DDOT":0},{"OBJECT_NAME":"DELTA 1 DEB","OBJECT_ID":"1975-052LS","EPOCH":"2026-03-08T19:00:16.867296","MEAN_MOTION":13.25537922,"ECCENTRICITY":0.01244436,"INCLINATION":99.6695,"RA_OF_ASC_NODE":278.7178,"ARG_OF_PERICENTER":255.751,"MEAN_ANOMALY":102.9763,"EPHEMERIS_TYPE":0,"CLASSIFICATION_TYPE":"U","NORAD_CAT_ID":42633,"ELEMENT_SET_NO":999,"REV_AT_EPOCH":59413,"BSTAR":0.00091803383,"MEAN_MOTION_DOT":3.77e-6,"MEAN_MOTION_DDOT":0}]
